IRIDIUM 126             
1 42809U 17039G   24286.44150180  .00001298  00000+0  45639-3 0  9997
2 42809  86.3942 249.6534 0002007  91.8754 268.2671 14.34211574382123
IRIDIUM 124             
1 42810U 17039H   24286.44508183  .00002304  00000+0  67885-3 0  9995
2 42810  86.4562 186.4701 0002764  81.3723 278.7791 14.43276602386731
IRIDIUM 128             
1 42811U 17039J   24286.50202103  .00000958  00000+0  33489-3 0  9992
2 42811  86.3904 281.1750 0002362  92.3748 267.7719 14.34216075382160
IRIDIUM 121             
1 42812U 17039K   24286.46053426  .00001257  00000+0  44174-3 0  9996
2 42812  86.3944 249.6686 0002227  84.3460 275.7990 14.34213685382001
IRIDIUM 133             
1 42955U 17061A   24286.53373495  .00000230  00000+0  75044-4 0  9999
2 42955  86.3908 281.2641 0002278  88.5757 271.5700 14.34218406366969
IRIDIUM 100             
1 42956U 17061B   24286.52739286  .00000133  00000+0  40487-4 0  9998
2 42956  86.3907 281.1998 0002379  92.2320 267.9149 14.34218783366967
IRIDIUM 122             
1 42957U 17061C   24286.49567965  .00000329  00000+0  11042-3 0  9999
2 42957  86.3906 281.2115 0002258  95.7454 264.3999 14.34218010366968
IRIDIUM 129             
1 42958U 17061D   24286.52104840 -.00000018  00000+0 -13636-4 0  9992
2 42958  86.3905 281.2616 0001923  88.8660 271.2756 14.34217258366987
